[Satellite]
VERSION=1.1
NAME=FLOCK 3P-43
NICKNAME=FLOCK 3P-43
TLE1=1 42007U 17008BM  17186.27770669  .00001137  00000-0  51937-4 0  9997
TLE2=2 42007  97.4950 247.6226 0009217 141.2781 218.9117 15.22624202 21290
